{"version": 0.6, "generator": "Overpass API 0.7.62.8 e802775f", "osm3s": {"timestamp_osm_base": "2026-01-20T02:51:31Z", "copyright": "The data included in this document is from www.openstreetmap.org. The data is made available under ODbL."}, "elements": [{"type": "node", "id": 1588157201, "lat": 30.1379108, "lon": 118.7823105, "tags": {"name": "\u7fe0\u7af9\u5c71\u5e84", "tourism": "alpine_hut"}}, {"type": "node", "id": 3684644276, "lat": 30.2049854, "lon": 118.8166369, "tags": {"tourism": "viewpoint"}}, {"type": "node", "id": 9096085362, "lat": 29.9072495, "lon": 118.6427002}, {"type": "node", "id": 9096085363, "lat": 29.9074595, "lon": 118.642274}, {"type": "node", "id": 9096085364, "lat": 29.9071207, "lon": 118.6425423}, {"type": "node", "id": 9096085365, "lat": 29.9075653, "lon": 118.6424524}, {"type": "node", "id": 9096168505, "lat": 30.0745486, "lon": 118.8169843}, {"type": "node", "id": 9096168506, "lat": 30.0744805, "lon": 118.8169025}, {"type": "node", "id": 9096168508, "lat": 30.074569, "lon": 118.8169231}, {"type": "node", "id": 9096168517, "lat": 30.075029, "lon": 118.8173883}, {"type": "node", "id": 9096168518, "lat": 30.0749605, "lon": 118.8174554}, {"type": "node", "id": 9096168519, "lat": 30.0749873, "lon": 118.8175122}, {"type": "node", "id": 9096168520, "lat": 30.0750637, "lon": 118.8174433}, {"type": "node", "id": 9096168521, "lat": 30.0748313, "lon": 118.8170727}, {"type": "node", "id": 9096168522, "lat": 30.0747823, "lon": 118.8171046}, {"type": "node", "id": 9096168523, "lat": 30.0748394, "lon": 118.8172394}, {"type": "node", "id": 9096168524, "lat": 30.0748816, "lon": 118.8171592}, {"type": "node", "id": 9096168584, "lat": 30.0745222, "lon": 118.8168522}, {"type": "node", "id": 9096255594, "lat": 30.0758735, "lon": 118.8163107}, {"type": "node", "id": 9096255595, "lat": 30.0759487, "lon": 118.8164355}, {"type": "node", "id": 9096255596, "lat": 30.0758767, "lon": 118.8164905}, {"type": "node", "id": 9096255597, "lat": 30.0757938, "lon": 118.8163409}, {"type": "node", "id": 9096255653, "lat": 30.0757264, "lon": 118.8187981}, {"type": "node", "id": 9107183703, "lat": 30.1915964, "lon": 118.8168576, "tags": {"tourism": "viewpoint"}}, {"type": "node", "id": 9112878711, "lat": 30.0922185, "lon": 118.7472123, "tags": {"name": "\u9123\u5c71\u5927\u5ce1\u8c37", "tourism": "viewpoint"}}, {"type": "node", "id": 9118901254, "lat": 30.0747301, "lon": 118.8171163}, {"type": "node", "id": 9118901255, "lat": 30.0746665, "lon": 118.817035}, {"type": "node", "id": 9118901256, "lat": 30.0747234, "lon": 118.816958}, {"type": "node", "id": 9118901257, "lat": 30.074775, "lon": 118.8170049}, {"type": "node", "id": 9118901258, "lat": 30.0748227, "lon": 118.8170448}, {"type": "node", "id": 9289946274, "lat": 30.0758273, "lon": 118.8187313}, {"type": "node", "id": 9289946275, "lat": 30.0757768, "lon": 118.8186935}, {"type": "node", "id": 9289946276, "lat": 30.0757769, "lon": 118.8188427}, {"type": "node", "id": 9289946278, "lat": 30.0748329, "lon": 118.8173041}, {"type": "node", "id": 9289946284, "lat": 30.0747338, "lon": 118.8171496}, {"type": "node", "id": 9289946295, "lat": 30.0749015, "lon": 118.8171253}, {"type": "node", "id": 9289946296, "lat": 30.0749313, "lon": 118.8170765}, {"type": "node", "id": 9289946297, "lat": 30.0748935, "lon": 118.8170383}, {"type": "node", "id": 9289946298, "lat": 30.0748589, "lon": 118.8170719}, {"type": "node", "id": 9289946299, "lat": 30.0751381, "lon": 118.8173601}, {"type": "node", "id": 9289946300, "lat": 30.0750886, "lon": 118.817305}, {"type": "node", "id": 9291535306, "lat": 30.0746717, "lon": 118.8173017}, {"type": "node", "id": 9291535307, "lat": 30.0746404, "lon": 118.8171911}, {"type": "node", "id": 9291535308, "lat": 30.0745377, "lon": 118.817281}, {"type": "node", "id": 9291535309, "lat": 30.0745693, "lon": 118.8173764}, {"type": "node", "id": 9291535314, "lat": 30.0746398, "lon": 118.8173546}, {"type": "node", "id": 9291535315, "lat": 30.0745539, "lon": 118.8174271}, {"type": "node", "id": 9291535316, "lat": 30.0745706, "lon": 118.8175182}, {"type": "node", "id": 9291564317, "lat": 30.0746601, "lon": 118.8174177}, {"type": "node", "id": 10542941480, "lat": 30.1420811, "lon": 118.7649627, "tags": {"artwork_type": "sculpture", "name": "\u6c5f\u5357\u7b2c\u4e00\u5173", "tourism": "artwork"}}, {"type": "node", "id": 11173455523, "lat": 30.0745928, "lon": 118.8174932}, {"type": "node", "id": 12399100939, "lat": 30.0751473, "lon": 118.8173644}, {"type": "node", "id": 12399100940, "lat": 30.0749938, "lon": 118.8175203}, {"type": "node", "id": 12399100941, "lat": 30.0745638, "lon": 118.8175206}, {"type": "node", "id": 12399100942, "lat": 30.074529, "lon": 118.8172876}, {"type": "node", "id": 12399100943, "lat": 30.0745969, "lon": 118.8171804}, {"type": "node", "id": 12399100944, "lat": 30.0746602, "lon": 118.8171169}, {"type": "node", "id": 12399100945, "lat": 30.0746954, "lon": 118.8171078}, {"type": "node", "id": 12399100946, "lat": 30.0746384, "lon": 118.8170186}, {"type": "node", "id": 12399100947, "lat": 30.0747197, "lon": 118.8169392}, {"type": "node", "id": 12399100948, "lat": 30.0748578, "lon": 118.817047}, {"type": "node", "id": 12399100949, "lat": 30.0748832, "lon": 118.8170298}, {"type": "node", "id": 12399100950, "lat": 30.0749965, "lon": 118.8171295}, {"type": "node", "id": 12399100951, "lat": 30.0750775, "lon": 118.8172327}, {"type": "node", "id": 12437072152, "lat": 30.1941764, "lon": 118.809406, "tags": {"backcountry": "yes", "name": "\u996d\u7511\u5c16\u9732\u8425\u70b9", "tourism": "camp_site"}}, {"type": "node", "id": 13110147969, "lat": 29.928228, "lon": 118.6747494, "tags": {"name": "\u77f3\u6f6d\u4e0b\u6c70\u89c2\u666f\u53f0", "tourism": "viewpoint"}}, {"type": "node", "id": 13118176397, "lat": 30.1902815, "lon": 118.8167106, "tags": {"name": "\u4e91\u5c71\u5cad\u89c2\u666f\u5e73\u53f0", "tourism": "viewpoint"}}, {"type": "node", "id": 13130816323, "lat": 29.9570206, "lon": 118.7287199, "tags": {"name": "\u5c16\u5c16\u9876\u89c2\u666f\u53f0", "tourism": "viewpoint"}}, {"type": "way", "id": 983761950, "nodes": [9096085365, 9096085362, 9096085364, 9096085363, 9096085365], "tags": {"amenity": "place_of_worship", "name": "\u5468\u6c0f\u5b97\u7960", "tourism": "attraction"}}, {"type": "way", "id": 983765593, "nodes": [9096168508, 9096168505, 9096168506, 9096168584, 9096168508], "tags": {"building": "yes", "building:levels": "2", "guest_house": "bed_and_breakfast", "internet_access": "yes", "internet_access:fee": "no", "name": "\u745c\u4f3d\u697c", "name:en": "Yoga House", "name:zh": "\u745c\u4f3d\u697c", "operator": "Wildhomestay.com", "operator:website": "https://www.wildhomestay.com", "rooms": "5", "tourism": "guest_house"}}, {"type": "way", "id": 983765596, "nodes": [9096168520, 9096168519, 9096168518, 9096168517, 9096168520], "tags": {"building": "yes", "guest_house": "bed_and_breakfast", "internet_access": "yes", "internet_access:fee": "no", "name": "\u96e8\u96fe\u623f", "name:en": "Mist House", "name:zh": "\u96e8\u96fe\u623f", "operator": "Wildhomestay.com", "rooms": "5", "tourism": "guest_house"}}, {"type": "way", "id": 983765597, "nodes": [9096168524, 9096168523, 9289946284, 9096168522, 9096168521, 9096168524], "tags": {"amenity": "cafe", "brand": "Wildhomestay", "building": "yes", "cuisine": "chinese", "internet_access": "yes", "internet_access:fee": "no", "name": "\u91ce\u8da3\u9910\u5385", "name:en": "Wildhomestay cafe", "name:zh": "\u91ce\u8da3\u9910\u5385", "operator": "Wildhomestay.com", "outdoor_seating": "yes", "website": "https://www.wildhomestay.com"}}, {"type": "way", "id": 983767528, "nodes": [9096255597, 9096255594, 9096255595, 9096255596, 9096255597], "tags": {"building": "yes", "guest_house": "bed_and_breakfast", "internet_access": "yes", "internet_access:fee": "no", "name": "\u519c\u7530\u623f", "name:en": "Field House", "name:zh": "\u519c\u7530\u623f", "operator": "Wildhomestay.com", "rooms": "6", "tourism": "guest_house"}}, {"type": "way", "id": 986517138, "nodes": [9118901254, 9118901255, 9118901256, 9118901257, 9118901258, 9118901254], "tags": {"amenity": "restaurant", "building": "yes", "email": "info@wildhomestay.com", "internet_access": "yes", "name": "\u91ce\u8da3\u9910\u5385", "name:en": "Wildhomestay Indoor Cafe", "name:zh": "\u91ce\u8da3\u9910\u5385", "opening_hours": "24/7", "operator": "Wildhomestay.com", "website": "https://www.wildhomestay.com"}}, {"type": "way", "id": 1006955942, "nodes": [9289946274, 9289946275, 9096255653, 9289946276, 9289946274], "tags": {"building": "yes", "guest_house": "bed_and_breakfast", "internet_access": "yes", "internet_access:fee": "no", "name": "\u5c0f\u6eaa\u697c", "name:en": "Stream House", "name:zh": "\u5c0f\u6eaa\u697c", "operator": "Wildhomestay.com", "rooms": "4", "tourism": "guest_house"}}, {"type": "way", "id": 1006955946, "nodes": [9289946295, 9289946296, 9289946297, 9289946298, 9289946295], "tags": {"amenity": "cafe", "building": "yes", "name": "BBQ"}}, {"type": "way", "id": 1006955947, "nodes": [9096168517, 9096168520, 9289946299, 9289946300, 9096168517], "tags": {"building": "yes", "guest_house": "bed_and_breakfast", "internet_access": "yes", "internet_access:fee": "no", "name": "\u78d0\u77f3\u623f", "name:en": "Rock House", "name:zh": "\u78d0\u77f3\u623f", "operator": "Wildhomestay.com", "tourism": "guest_house"}}, {"type": "way", "id": 1007154649, "nodes": [9291535306, 9291535307, 9291535308, 9291535309, 9291535306], "tags": {"air_conditioning": "yes", "building": "yes", "guest_house": "guest_house", "internet_access": "yes", "internet_access:fee": "no", "name": "\u4e3b\u697c", "name:en": "Big House", "name:zh": "\u4e3b\u697c", "operator": "Wildhomestay.com", "rooms": "16", "tourism": "guest_house"}}, {"type": "way", "id": 1007154651, "nodes": [9291535314, 9291535315, 9291535316, 11173455523, 9291564317, 9291535314], "tags": {"building": "yes", "guest_house": "guest_house", "internet_access": "yes", "internet_access:fee": "no", "name": "\u9a6c\u8d5b\u514b\u697c", "name:en": "Mosaic House", "name:zh": "\u9a6c\u8d5b\u514b\u697c", "operator": "Wildhomestay.com", "rooms": "6", "tourism": "guest_house"}}, {"type": "way", "id": 1340463361, "nodes": [12399100939, 12399100940, 9289946278, 12399100941, 12399100942, 12399100943, 12399100944, 12399100945, 12399100946, 12399100947, 12399100948, 12399100949, 12399100950, 12399100951, 12399100939], "tags": {"addr:district": "Anhui", "air_conditioning": "no", "brand": "Wildhomestay.com", "building": "yes", "email": "info@wildhomestay.com", "internet_access": "yes", "internet_access:fee": "no", "name": "Wildhomestay", "rooms": "50", "tourism": "hotel", "website": "https://www.wildhomestay.com"}}]}